TROLL                   
1 62658U 25009BB  26068.22522958  .00013174  00000+0  48220-3 0  9994
2 62658  97.3932 150.7169 0001816  59.1850 300.9568 15.28164315118170
STARLINK-34223          
1 64336U 25124V   26068.81796389  .00025547  00000+0  93483-3 0  9991
2 64336  42.9923 117.2018 0000917 311.0752  49.0020 15.27573927 41849
